start=new Date('2022-06-04T00:00:00.000Z').valueOf();
sats=[{"NORAD_CAT_ID":"48355","REF_FRAME":"TEME","LAUNCH_DATE":"2021-05-04","RCS_SIZE":"LARGE","OBJECT_ID":"2021-038C","PERIAPSIS":"546.127","MEAN_MOTION_DDOT":"0.0000000000000","TLE_LINE2":"2 48355  53.0557  56.6264 0001566  61.0681 299.0465 15.06400706 59706","RA_OF_ASC_NODE":"56.6264","MEAN_MOTION_DOT":"0.00000746","SEMIMAJOR_AXIS":"6925.346","MEAN_MOTION":"15.06400706","TLE_LINE1":"1 48355U 21038C   22154.15709357  .00000746  00000-0  68960-4 0  9990","FILE":"3479192","MEAN_ELEMENT_THEORY":"SGP4","REV_AT_EPOCH":"5970","ELEMENT_SET_NO":"999","PERIOD":"95.592","COUNTRY_CODE":"US","MEAN_ANOMALY":"299.0465","INCLINATION":"53.0557","TIME_SYSTEM":"UTC","EPOCH":"2022-06-03T03:46:12.884448","ARG_OF_PERICENTER":"61.0681","DECAY_DATE":null,"SITE":"AFETR","APOAPSIS":"548.296","BSTAR":"0.00006896000000","OBJECT_NAME":"STARLINK-2635","ECCENTRICITY":"0.00015660","EPHEMERIS_TYPE":"0","CLASSIFICATION_TYPE":"U","GP_ID":"205262623","OBJECT_TYPE":"PAYLOAD","CENTER_NAME":"EARTH"},{"PERIOD":"95.592","ELEMENT_SET_NO":"999","INCLINATION":"53.0544","MEAN_ANOMALY":"306.3584","COUNTRY_CODE":"US","MEAN_ELEMENT_THEORY":"SGP4","TLE_LINE1":"1 48356U 21038D   22154.88322654 -.00000244  00000-0  25384-5 0  9990","FILE":"3479630","REV_AT_EPOCH":"5981","CENTER_NAME":"EARTH","GP_ID":"205296426","OBJECT_TYPE":"PAYLOAD","CLASSIFICATION_TYPE":"U","ARG_OF_PERICENTER":"53.7570","EPOCH":"2022-06-03T21:11:50.773056","TIME_SYSTEM":"UTC","ECCENTRICITY":"0.00017900","EPHEMERIS_TYPE":"0","OBJECT_NAME":"STARLINK-2637","SITE":"AFETR","DECAY_DATE":null,"APOAPSIS":"548.453","BSTAR":"0.00000253840000","REF_FRAME":"TEME","RCS_SIZE":"LARGE","LAUNCH_DATE":"2021-05-04","NORAD_CAT_ID":"48356","MEAN_MOTION":"15.06400098","SEMIMAJOR_AXIS":"6925.348","MEAN_MOTION_DOT":"-0.00000244","PERIAPSIS":"545.974","OBJECT_ID":"2021-038D","RA_OF_ASC_NODE":"53.3676","TLE_LINE2":"2 48356  53.0544  53.3676 0001790  53.7570 306.3584 15.06400098 59818","MEAN_MOTION_DDOT":"0.0000000000000"},{"PERIAPSIS":"546.009","OBJECT_ID":"2021-038E","RA_OF_ASC_NODE":"53.4054","MEAN_MOTION_DDOT":"0.0000000000000","TLE_LINE2":"2 48357  53.0572  53.4054 0001735  59.9146 300.2015 15.06401084 59815","SEMIMAJOR_AXIS":"6925.345","MEAN_MOTION_DOT":"0.00001076","MEAN_MOTION":"15.06401084","NORAD_CAT_ID":"48357","REF_FRAME":"TEME","RCS_SIZE":"LARGE","LAUNCH_DATE":"2021-05-04","EPOCH":"2022-06-03T21:10:29.373888","ARG_OF_PERICENTER":"59.9146","TIME_SYSTEM":"UTC","OBJECT_NAME":"STARLINK-2636","ECCENTRICITY":"0.00017350","EPHEMERIS_TYPE":"0","APOAPSIS":"548.412","DECAY_DATE":null,"SITE":"AFETR","BSTAR":"0.00009110400000","CENTER_NAME":"EARTH","CLASSIFICATION_TYPE":"U","GP_ID":"205296676","OBJECT_TYPE":"PAYLOAD","MEAN_ELEMENT_THEORY":"SGP4","TLE_LINE1":"1 48357U 21038E   22154.88228442  .00001076  00000-0  91104-4 0  9996","FILE":"3479630","REV_AT_EPOCH":"5981","ELEMENT_SET_NO":"999","PERIOD":"95.592","MEAN_ANOMALY":"300.2015","INCLINATION":"53.0572","COUNTRY_CODE":"US"},{"MEAN_ELEMENT_THEORY":"SGP4","FILE":"3479630","TLE_LINE1":"1 48358U 21038F   22154.74315801 -.00000036  00000-0  16493-4 0  9992","REV_AT_EPOCH":"5978","ELEMENT_SET_NO":"999","PERIOD":"95.592","MEAN_ANOMALY":"315.7782","INCLINATION":"53.0566","COUNTRY_CODE":"US","EPOCH":"2022-06-03T17:50:08.852064","ARG_OF_PERICENTER":"44.3375","TIME_SYSTEM":"UTC","OBJECT_NAME":"STARLINK-2624","ECCENTRICITY":"0.00021000","EPHEMERIS_TYPE":"0","DECAY_DATE":null,"BSTAR":"0.00001649300000","SITE":"AFETR","APOAPSIS":"548.661","CENTER_NAME":"EARTH","CLASSIFICATION_TYPE":"U","GP_ID":"205297927","OBJECT_TYPE":"PAYLOAD","NORAD_CAT_ID":"48358","REF_FRAME":"TEME","RCS_SIZE":"LARGE","LAUNCH_DATE":"2021-05-04","PERIAPSIS":"545.752","OBJECT_ID":"2021-038F","RA_OF_ASC_NODE":"53.9855","MEAN_MOTION_DDOT":"0.0000000000000","TLE_LINE2":"2 48358  53.0566  53.9855 0002100  44.3375 315.7782 15.06402337 59782","MEAN_MOTION_DOT":"-0.00000036","SEMIMAJOR_AXIS":"6925.341","MEAN_MOTION":"15.06402337"},{"OBJECT_TYPE":"PAYLOAD","GP_ID":"205269930","CLASSIFICATION_TYPE":"U","CENTER_NAME":"EARTH","TIME_SYSTEM":"UTC","EPOCH":"2022-06-03T19:20:23.383680","ARG_OF_PERICENTER":"51.8608","SITE":"AFETR","DECAY_DATE":null,"APOAPSIS":"548.526","BSTAR":"0.00003197300000","ECCENTRICITY":"0.00019000","EPHEMERIS_TYPE":"0","OBJECT_NAME":"STARLINK-2628","PERIOD":"95.592","ELEMENT_SET_NO":"999","COUNTRY_CODE":"US","INCLINATION":"53.0559","MEAN_ANOMALY":"308.2552","FILE":"3479383","TLE_LINE1":"1 48359U 21038G   22154.80582620  .00000195  00000-0  31973-4 0  9990","MEAN_ELEMENT_THEORY":"SGP4","REV_AT_EPOCH":"6103","MEAN_MOTION":"15.06401131","SEMIMAJOR_AXIS":"6925.345","MEAN_MOTION_DOT":"0.00000195","OBJECT_ID":"2021-038G","PERIAPSIS":"545.894","TLE_LINE2":"2 48359  53.0559  53.7185 0001900  51.8608 308.2552 15.06401131 61032","MEAN_MOTION_DDOT":"0.0000000000000","RA_OF_ASC_NODE":"53.7185","REF_FRAME":"TEME","LAUNCH_DATE":"2021-05-04","RCS_SIZE":"LARGE","NORAD_CAT_ID":"48359"},{"REV_AT_EPOCH":"5978","MEAN_ELEMENT_THEORY":"SGP4","TLE_LINE1":"1 48360U 21038H   22154.73579036 -.00000761  00000-0 -32188-4 0  9991","FILE":"3479630","MEAN_ANOMALY":"304.4604","INCLINATION":"53.0555","COUNTRY_CODE":"US","ELEMENT_SET_NO":"999","PERIOD":"95.592","OBJECT_NAME":"STARLINK-2622","ECCENTRICITY":"0.00016440","EPHEMERIS_TYPE":"0","SITE":"AFETR","DECAY_DATE":null,"APOAPSIS":"548.338","BSTAR":"-0.00003218800000","ARG_OF_PERICENTER":"55.6540","EPOCH":"2022-06-03T17:39:32.287104","TIME_SYSTEM":"UTC","CENTER_NAME":"EARTH","CLASSIFICATION_TYPE":"U","OBJECT_TYPE":"PAYLOAD","GP_ID":"205296926","NORAD_CAT_ID":"48360","RCS_SIZE":"LARGE","LAUNCH_DATE":"2021-05-04","REF_FRAME":"TEME","RA_OF_ASC_NODE":"54.0430","TLE_LINE2":"2 48360  53.0555  54.0430 0001644  55.6540 304.4604 15.06404508 59785","MEAN_MOTION_DDOT":"0.0000000000000","PERIAPSIS":"546.061","OBJECT_ID":"2021-038H","SEMIMAJOR_AXIS":"6925.335","MEAN_MOTION":"15.06404508","MEAN_MOTION_DOT":"-0.00000761"},{"OBJECT_ID":"2021-038J","PERIAPSIS":"546.147","MEAN_MOTION_DDOT":"0.0000000000000","TLE_LINE2":"2 48361  53.0576  54.3301 0001541  66.3421 293.7730 15.06399764 59778","RA_OF_ASC_NODE":"54.3301","SEMIMAJOR_AXIS":"6925.349","MEAN_MOTION_DOT":"-0.00001059","MEAN_MOTION":"15.06399764","NORAD_CAT_ID":"48361","REF_FRAME":"TEME","LAUNCH_DATE":"2021-05-04","RCS_SIZE":"LARGE","TIME_SYSTEM":"UTC","EPOCH":"2022-06-03T15:58:41.387520","ARG_OF_PERICENTER":"66.3421","DECAY_DATE":null,"SITE":"AFETR","APOAPSIS":"548.281","BSTAR":"-0.00005220900000","OBJECT_NAME":"STARLINK-2591","ECCENTRICITY":"0.00015410","EPHEMERIS_TYPE":"0","CLASSIFICATION_TYPE":"U","OBJECT_TYPE":"PAYLOAD","GP_ID":"205297176","CENTER_NAME":"EARTH","FILE":"3479630","TLE_LINE1":"1 48361U 21038J   22154.66575680 -.00001059  00000-0 -52209-4 0  9992","MEAN_ELEMENT_THEORY":"SGP4","REV_AT_EPOCH":"5977","ELEMENT_SET_NO":"999","PERIOD":"95.592","COUNTRY_CODE":"US","MEAN_ANOMALY":"293.7730","INCLINATION":"53.0576"},{"CENTER_NAME":"EARTH","OBJECT_TYPE":"PAYLOAD","GP_ID":"205270738","CLASSIFICATION_TYPE":"U","ARG_OF_PERICENTER":"54.9463","EPOCH":"2022-06-03T19:45:34.352064","TIME_SYSTEM":"UTC","ECCENTRICITY":"0.00019170","EPHEMERIS_TYPE":"0","OBJECT_NAME":"STARLINK-2578","SITE":"AFETR","DECAY_DATE":null,"BSTAR":"-0.00000910460000","APOAPSIS":"548.553","PERIOD":"95.592","ELEMENT_SET_NO":"999","INCLINATION":"53.0551","MEAN_ANOMALY":"305.1706","COUNTRY_CODE":"US","MEAN_ELEMENT_THEORY":"SGP4","FILE":"3479388","TLE_LINE1":"1 48362U 21038K   22154.82331426 -.00000417  00000-0 -91046-5 0  9999","REV_AT_EPOCH":"6039","MEAN_MOTION_DOT":"-0.00000417","SEMIMAJOR_AXIS":"6925.361","MEAN_MOTION":"15.06396042","PERIAPSIS":"545.898","OBJECT_ID":"2021-038K","RA_OF_ASC_NODE":"53.6489","TLE_LINE2":"2 48362  53.0551  53.6489 0001917  54.9463 305.1706 15.06396042 60394","MEAN_MOTION_DDOT":"0.0000000000000","REF_FRAME":"TEME","RCS_SIZE":"LARGE","LAUNCH_DATE":"2021-05-04","NORAD_CAT_ID":"48362"},{"RA_OF_ASC_NODE":"48.5553","MEAN_MOTION_DDOT":"0.0000000000000","TLE_LINE2":"2 48363  53.0567  48.5553 0001510  77.4080 282.7078 15.06399571 59874","PERIAPSIS":"546.169","OBJECT_ID":"2021-038L","SEMIMAJOR_AXIS":"6925.350","MEAN_MOTION":"15.06399571","MEAN_MOTION_DOT":"0.00000351","NORAD_CAT_ID":"48363","RCS_SIZE":"LARGE","LAUNCH_DATE":"2021-05-04","REF_FRAME":"TEME","EPHEMERIS_TYPE":"0","ECCENTRICITY":"0.00015100","OBJECT_NAME":"STARLINK-2626","DECAY_DATE":null,"SITE":"AFETR","BSTAR":"0.00004247900000","APOAPSIS":"548.261","ARG_OF_PERICENTER":"77.4080","EPOCH":"2022-06-03T20:11:28.249152","TIME_SYSTEM":"UTC","CENTER_NAME":"EARTH","OBJECT_TYPE":"PAYLOAD","GP_ID":"205298178","CLASSIFICATION_TYPE":"U","REV_AT_EPOCH":"5987","MEAN_ELEMENT_THEORY":"SGP4","FILE":"3479630","TLE_LINE1":"1 48363U 21038L   22154.84129918  .00000351  00000-0  42479-4 0  9993","INCLINATION":"53.0567","MEAN_ANOMALY":"282.7078","COUNTRY_CODE":"US","PERIOD":"95.592","ELEMENT_SET_NO":"999"},{"RCS_SIZE":"LARGE","LAUNCH_DATE":"2021-05-04","REF_FRAME":"TEME","NORAD_CAT_ID":"48364","MEAN_MOTION_DOT":"0.00022470","SEMIMAJOR_AXIS":"6932.345","MEAN_MOTION":"15.04120220","RA_OF_ASC_NODE":"51.9583","MEAN_MOTION_DDOT":"0.0000000000000","TLE_LINE2":"2 48364  53.0559  51.9583 0001381  76.6916 283.4226 15.04120220 59764","PERIAPSIS":"553.252","OBJECT_ID":"2021-038M","MEAN_ANOMALY":"283.4226","INCLINATION":"53.0559","COUNTRY_CODE":"US","ELEMENT_SET_NO":"999","PERIOD":"95.737","REV_AT_EPOCH":"5976","MEAN_ELEMENT_THEORY":"SGP4","FILE":"3479192","TLE_LINE1":"1 48364U 21038M   22154.12462302  .00022470  00000-0  16183-2 0  9999","CENTER_NAME":"EARTH","CLASSIFICATION_TYPE":"U","OBJECT_TYPE":"PAYLOAD","GP_ID":"205263373","OBJECT_NAME":"STARLINK-2611","ECCENTRICITY":"0.00013810","EPHEMERIS_TYPE":"0","DECAY_DATE":null,"SITE":"AFETR","APOAPSIS":"555.167","BSTAR":"0.00161830000000","ARG_OF_PERICENTER":"76.6916","EPOCH":"2022-06-03T02:59:27.428928","TIME_SYSTEM":"UTC"}];
